STARLINK-32641          
1 62236U 24231U   26169.50716961  .00010543  00000+0  36757-3 0  9993
2 62236  53.1592  98.5819 0001229  93.9630 266.1512 15.30201650 87371
QIANFAN-37              
1 62238U 24232B   26169.59486402  .00000065  00000+0  82288-4 0  9998
2 62238  89.0071  22.4438 0001413  81.4693 278.6619 13.51009080124532
QIANFAN-38              
1 62239U 24232C   26169.61953628  .00000065  00000+0  82689-4 0  9996
2 62239  89.0078  22.3699 0015270  19.9507 340.2238 13.51006078124597
QIANFAN-39              
1 62240U 24232D   26169.55381368  .00000209  00000+0  82041-4 0  9999
2 62240  89.0059  15.9112 0016052 175.0435 185.0920 14.25526522128140
QIANFAN-40              
1 62241U 24232E   26169.57837873  .00000056  00000+0  67948-4 0  9998
2 62241  89.0105  22.0110 0014572  28.0310 332.1623 13.51007745124953
QIANFAN-41              
1 62242U 24232F   26169.58664569  .00000061  00000+0  76651-4 0  9997
2 62242  89.0075  22.3213 0014550  16.6291 343.5335 13.51010118124611
QIANFAN-42              
1 62243U 24232G   26169.60121046  .00000179  00000+0  70826-4 0  9997
2 62243  89.0057  15.9809 0014640 180.9870 179.1297 14.24615415128110
QIANFAN-43              
1 62244U 24232H   26169.58252359  .00000073  00000+0  94416-4 0  9991
2 62244  89.0080  22.3953 0016256  20.8518 339.3293 13.51009880 93226
QIANFAN-44              
1 62245U 24232J   26169.57015855  .00000058  00000+0  71912-4 0  9998
2 62245  89.0078  22.2042 0014383  18.9593 341.2091 13.51011870124698
QIANFAN-45              
1 62246U 24232K   26169.61134965  .00000057  00000+0  69535-4 0  9995
2 62246  89.0082  22.3533 0015026  18.1396 342.0288 13.51009354124622
QIANFAN-46              
1 62247U 24232L   26169.56195757  .00000047  00000+0  53791-4 0  9992
2 62247  89.0078  22.4195 0015265  23.4939 336.6907 13.51010156124573
QIANFAN-47              
1 62248U 24232M   26169.56607163  .00000061  00000+0  75115-4 0  9992
2 62248  89.0074  22.3446 0015663  22.4621 337.7213 13.51008973124607
QIANFAN-48              
1 62249U 24232N   26169.60305269  .00000056  00000+0  67643-4 0  9991
2 62249  89.0078  22.3500 0017982  23.9348 336.2636 13.51013540124611
QIANFAN-49              
1 62250U 24232P   26169.59072810  .00000064  00000+0  80724-4 0  9998
2 62250  89.0077  22.3623 0014911  20.0613 340.1122 13.51012212 93209
QIANFAN-50              
1 62251U 24232Q   26169.61545836  .00000061  00000+0  76488-4 0  9994
2 62251  89.0082  22.3782 0016594  20.5104 339.6710 13.51008999 93237
QIANFAN-51              
1 62252U 24232R   26169.59896694  .00000049  00000+0  57801-4 0  9997
2 62252  89.0076  22.3622 0014229  25.2190 334.9653 13.51005763 93223
QIANFAN-52              
1 62253U 24232S   26169.55369904  .00000072  00000+0  92514-4 0  9999
2 62253  89.0072  22.2330 0015960  17.0382 343.1302 13.51011346 93306
QIANFAN-53              
1 62254U 24232T   26169.60717765  .00000050  00000+0  59508-4 0  9990
2 62254  89.0080  22.3463 0014881  18.4952 341.6737 13.51008161 93275
QIANFAN-54              
1 62255U 24232U   26169.57426015  .00000051  00000+0  60503-4 0  9990
2 62255  89.0071  22.0115 0004009  69.3535 290.8046 13.51012118124775
PROBA-3 CSC             
1 62256U 24233A   26167.48839492 -.00000319  00000+0  21263-2 0  9993
2 62256  59.7021  97.5372 8002505 205.5638  68.8708  1.22073990  6814
PROBA-3 OSC             
1 62258U 24233C   26167.48839175 -.00000320  00000+0  19164-2 0  9992
2 62258  59.7055  97.5389 8002640 205.5627  68.8704  1.22074056  6808
SXM-9                   
1 62259U 24234A   26168.59467480 -.00000210  00000+0  00000+0 0  9997
2 62259   0.0129 348.1135 0004962 325.4677  81.1816  1.00269823  5571
SENTINEL-1C             
1 62261U 24235A   26169.57067286  .00000128  00000+0  37324-4 0  9991
2 62261  98.1821 176.8606 0001365  89.7137 270.4219 14.58605093 81614
STARLINK-32632          
1 62262U 24231V   26169.56892335  .00016344  00000+0  53716-3 0  9997
2 62262  53.1584 111.0401 0001152  87.9923 272.1210 15.31707932 87212
STARLINK-11496 [DTC]    
1 62267U 24237A   26169.37470390  .00128874  00000+0  99067-3 0  9991
2 62267  43.0007 170.0574 0001659 283.0717  76.9966 15.70879909 88882
STARLINK-11501 [DTC]    
1 62268U 24237B   26169.27926493  .00079611  00000+0  61702-3 0  9990
2 62268  43.0020 170.1824 0001993 270.3182  89.7458 15.70876964 88823
STARLINK-11491 [DTC]    
1 62269U 24237C   26169.46470014  .00136640  00000+0  10503-2 0  9993
2 62269  43.0002 168.9889 0001029 261.1180  98.9571 15.70855845 88908
STARLINK-11479 [DTC]    
1 62270U 24237D   26169.41705001  .00186045  00000+0  14179-2 0  9994
2 62270  43.0008 169.5003 0001327 280.8938  79.1781 15.70895343 88890
STARLINK-11489 [DTC]    
1 62271U 24237E   26169.13629751 -.00075228  00000+0 -58584-3 0  9992
2 62271  43.0005 171.7138 0001019 239.7022 120.3745 15.70931678 88843
STARLINK-11494 [DTC]    
1 62272U 24237F   26169.36939473  .00125671  00000+0  96759-3 0  9995
2 62272  43.0008 170.0085 0001299 268.8260  91.2459 15.70853793 88835
