OBJECT_NAME,OBJECT_ID,EPOCH,MEAN_MOTION,ECCENTRICITY,INCLINATION,RA_OF_ASC_NODE,ARG_OF_PERICENTER,MEAN_ANOMALY,EPHEMERIS_TYPE,CLASSIFICATION_TYPE,NORAD_CAT_ID,ELEMENT_SET_NO,REV_AT_EPOCH,BSTAR,MEAN_MOTION_DOT,MEAN_MOTION_DDOT
STARLINK-32641,2024-231U,2026-06-18T12:10:19.454304,15.30201650,.00012294,53.1592,98.5819,93.9630,266.1512,0,U,62236,999,8737,.36757449E-3,.10543E-3,0
QIANFAN-37,2024-232B,2026-06-18T14:16:36.251328,13.51009080,.00014138,89.0071,22.4438,81.4693,278.6619,0,U,62238,999,12453,.82288272E-4,.65E-6,0
QIANFAN-38,2024-232C,2026-06-18T14:52:07.934592,13.51006078,.00152703,89.0078,22.3699,19.9507,340.2238,0,U,62239,999,12459,.82689188E-4,.65E-6,0
QIANFAN-39,2024-232D,2026-06-18T13:17:29.501952,14.25526522,.00160528,89.0059,15.9112,175.0435,185.0920,0,U,62240,999,12814,.82041119E-4,.209E-5,0
QIANFAN-40,2024-232E,2026-06-18T13:52:51.922272,13.51007745,.00145724,89.0105,22.0110,28.0310,332.1623,0,U,62241,999,12495,.6794839E-4,.56E-6,0
QIANFAN-41,2024-232F,2026-06-18T14:04:46.187616,13.51010118,.00145507,89.0075,22.3213,16.6291,343.5335,0,U,62242,999,12461,.76651127E-4,.61E-6,0
QIANFAN-42,2024-232G,2026-06-18T14:25:44.583744,14.24615415,.00146405,89.0057,15.9809,180.9870,179.1297,0,U,62243,999,12811,.70825508E-4,.179E-5,0
QIANFAN-43,2024-232H,2026-06-18T13:58:50.038176,13.51009880,.00162569,89.0080,22.3953,20.8518,339.3293,0,U,62244,999,9322,.94415578E-4,.73E-6,0
QIANFAN-44,2024-232J,2026-06-18T13:41:01.698720,13.51011870,.00143836,89.0078,22.2042,18.9593,341.2091,0,U,62245,999,12469,.71912477E-4,.58E-6,0
QIANFAN-45,2024-232K,2026-06-18T14:40:20.609760,13.51009354,.00150261,89.0082,22.3533,18.1396,342.0288,0,U,62246,999,12462,.69535286E-4,.57E-6,0
QIANFAN-46,2024-232L,2026-06-18T13:29:13.134048,13.51010156,.00152656,89.0078,22.4195,23.4939,336.6907,0,U,62247,999,12457,.53790836E-4,.47E-6,0
QIANFAN-47,2024-232M,2026-06-18T13:35:08.588832,13.51008973,.00156639,89.0074,22.3446,22.4621,337.7213,0,U,62248,999,12460,.75114625E-4,.61E-6,0
QIANFAN-48,2024-232N,2026-06-18T14:28:23.752416,13.51013540,.00179829,89.0078,22.3500,23.9348,336.2636,0,U,62249,999,12461,.67643035E-4,.56E-6,0
QIANFAN-49,2024-232P,2026-06-18T14:10:38.907840,13.51012212,.00149118,89.0077,22.3623,20.0613,340.1122,0,U,62250,999,9320,.80723939E-4,.64E-6,0
QIANFAN-50,2024-232Q,2026-06-18T14:46:15.602304,13.51008999,.00165945,89.0082,22.3782,20.5104,339.6710,0,U,62251,999,9323,.76488193E-4,.61E-6,0
QIANFAN-51,2024-232R,2026-06-18T14:22:30.743616,13.51005763,.00142292,89.0076,22.3622,25.2190,334.9653,0,U,62252,999,9322,.57801126E-4,.49E-6,0
QIANFAN-52,2024-232S,2026-06-18T13:17:19.597056,13.51011346,.00159609,89.0072,22.2330,17.0382,343.1302,0,U,62253,999,9330,.92513659E-4,.72E-6,0
QIANFAN-53,2024-232T,2026-06-18T14:34:20.148960,13.51008161,.00148818,89.0080,22.3463,18.4952,341.6737,0,U,62254,999,9327,.59507888E-4,.5E-6,0
QIANFAN-54,2024-232U,2026-06-18T13:46:56.076960,13.51012118,.00040099,89.0071,22.0115,69.3535,290.8046,0,U,62255,999,12477,.60503022E-4,.51E-6,0
PROBA-3 CSC,2024-233A,2026-06-16T11:43:17.321088,1.22073990,.80025054,59.7021,97.5372,205.5638,68.8708,0,U,62256,999,681,.2126279E-2,-.319E-5,0
PROBA-3 OSC,2024-233C,2026-06-16T11:43:17.047200,1.22074056,.80026403,59.7055,97.5389,205.5627,68.8704,0,U,62258,999,680,.19163744E-2,-.32E-5,0
SXM-9,2024-234A,2026-06-17T14:16:19.902720,1.00269823,.00049628,0.0129,348.1135,325.4677,81.1816,0,U,62259,999,557,0,-.21E-5,0
SENTINEL-1C,2024-235A,2026-06-18T13:41:46.135104,14.58605093,.00013658,98.1821,176.8606,89.7137,270.4219,0,U,62261,999,8161,.37323507E-4,.128E-5,0
STARLINK-32632,2024-231V,2026-06-18T13:39:14.977440,15.31707932,.00011528,53.1584,111.0401,87.9923,272.1210,0,U,62262,999,8721,.53716021E-3,.16344E-3,0
STARLINK-11496 [DTC],2024-237A,2026-06-18T08:59:34.416960,15.70879909,.00016596,43.0007,170.0574,283.0717,76.9966,0,U,62267,999,8888,.9906728E-3,.128874E-2,0
STARLINK-11501 [DTC],2024-237B,2026-06-18T06:42:08.489952,15.70876964,.0001993,43.0020,170.1824,270.3182,89.7458,0,U,62268,999,8882,.61701979E-3,.79611E-3,0
STARLINK-11491 [DTC],2024-237C,2026-06-18T11:09:10.092096,15.70855845,.00010297,43.0002,168.9889,261.1180,98.9571,0,U,62269,999,8890,.10502594E-2,.13664E-2,0
STARLINK-11479 [DTC],2024-237D,2026-06-18T10:00:33.120864,15.70895343,.00013275,43.0008,169.5003,280.8938,79.1781,0,U,62270,999,8889,.1417875E-2,.186045E-2,0
STARLINK-11489 [DTC],2024-237E,2026-06-18T03:16:16.104864,15.70931678,.00010192,43.0005,171.7138,239.7022,120.3745,0,U,62271,999,8884,-.58584295E-3,-.75228E-3,0
STARLINK-11494 [DTC],2024-237F,2026-06-18T08:51:55.704672,15.70853793,.00012994,43.0008,170.0085,268.8260,91.2459,0,U,62272,999,8883,.96758599E-3,.125671E-2,0
